[{"OBJECT_NAME":"CELESTIS-02 & TAURUS R/B","OBJECT_ID":"1998-007D","EPOCH":"2026-03-05T02:23:57.293088","MEAN_MOTION":14.22451744,"ECCENTRICITY":0.00632239,"INCLINATION":108.0085,"RA_OF_ASC_NODE":122.192,"ARG_OF_PERICENTER":309.7088,"MEAN_ANOMALY":106.7109,"EPHEMERIS_TYPE":0,"CLASSIFICATION_TYPE":"U","NORAD_CAT_ID":25160,"ELEMENT_SET_NO":999,"REV_AT_EPOCH":45571,"BSTAR":6.98822e-5,"MEAN_MOTION_DOT":2.9e-7,"MEAN_MOTION_DDOT":0}]
