CELESTIS-02 & TAURUS R/B
1 25160U 98007D   26064.09996867  .00000029  00000+0  69882-4 0  9997
2 25160 108.0085 122.1920 0063223 309.7088 106.7109 14.22451744455716
